{"type": "FeatureCollection", "features": [ {"type": "Feature", "properties": {"norad_id": 37216, "name": "COSMO-SKYMED 4", "group": "resource", "lat": 20.047044490163124, "lon": 174.98073847974086, "alt_km": 622.125152290826, "timestamp": "2025-12-22T16:55:17.106939+00:00", "meta": {"OBJECT_NAME": "COSMO-SKYMED 4", "OBJECT_ID": "2010-060A", "EPOCH": "2025-12-22T07:06:31.804416", "MEAN_MOTION": 14.82154513, "ECCENTRICITY": 0.00014308, "INCLINATION": 97.88, "RA_OF_ASC_NODE": 177.4751, "ARG_OF_PERICENTER": 81.8856, "MEAN_ANOMALY": 278.2519, "EPHEMERIS_TYPE": 0, "CLASSIFICATION_TYPE": "U", "NORAD_CAT_ID": 37216, "ELEMENT_SET_NO": 999, "REV_AT_EPOCH": 81836, "BSTAR": 1.2948021e-05, "MEAN_MOTION_DOT": 5.1e-07, "MEAN_MOTION_DDOT": 0}, "tle": {"line1": "1 37216U 10060A   25356.29620144  .00000051  00000+0  12948-4 0  9998", "line2": "2 37216  97.8800 177.4751 0001430  81.8856 278.2519 14.82154513818363"}}, "geometry": {"type": "Point", "coordinates": [174.98073847974086, 20.047044490163124]}}, {"type": "Feature", "properties": {"norad_id": 37387, "name": "RESOURCESAT-2", "group": "resource", "lat": -23.161510900206853, "lon": 64.00528484914301, "alt_km": 821.9776567664048, "timestamp": "2025-12-22T16:55:17.106949+00:00", "meta": {"OBJECT_NAME": "RESOURCESAT-2", "OBJECT_ID": "2011-015A", "EPOCH": "2025-12-22T06:53:46.500000", "MEAN_MOTION": 14.21600882, "ECCENTRICITY": 0.00059734, "INCLINATION": 98.7863, "RA_OF_ASC_NODE": 59.7958, "ARG_OF_PERICENTER": 16.7021, "MEAN_ANOMALY": 343.4352, "EPHEMERIS_TYPE": 0, "CLASSIFICATION_TYPE": "U", "NORAD_CAT_ID": 37387, "ELEMENT_SET_NO": 999, "REV_AT_EPOCH": 76104, "BSTAR": 8.2082859e-05, "MEAN_MOTION_DOT": 1.36e-06, "MEAN_MOTION_DDOT": 0}, "tle": {"line1": "1 37387U 11015A   25356.28734375  .00000136  00000+0  82083-4 0  9990", "line2": "2 37387  98.7863  59.7958 0005973  16.7021 343.4352 14.21600882761049"}}, "geometry": {"type": "Point", "coordinates": [64.00528484914301, -23.161510900206853]}}, {"type": "Feature", "properties": {"norad_id": 37781, "name": "HAIYANG-2A", "group": "resource", "lat": -65.47485771829929, "lon": 18.622353371849606, "alt_km": 976.0405617707584, "timestamp": "2025-12-22T16:55:17.106959+00:00", "meta": {"OBJECT_NAME": "HAIYANG-2A", "OBJECT_ID": "2011-043A", "EPOCH": "2025-12-22T06:47:52.096704", "MEAN_MOTION": 13.78835734, "ECCENTRICITY": 0.00016117, "INCLINATION": 99.3371, "RA_OF_ASC_NODE": 357.0706, "ARG_OF_PERICENTER": 69.9778, "MEAN_ANOMALY": 290.1547, "EPHEMERIS_TYPE": 0, "CLASSIFICATION_TYPE": "U", "NORAD_CAT_ID": 37781, "ELEMENT_SET_NO": 999, "REV_AT_EPOCH": 72230, "BSTAR": -2.9753925e-05, "MEAN_MOTION_DOT": -7.4e-07, "MEAN_MOTION_DDOT": 0}, "tle": {"line1": "1 37781U 11043A   25356.28324186 -.00000074  00000+0 -29754-4 0  9993", "line2": "2 37781  99.3371 357.0706 0001611  69.9778 290.1547 13.78835734722304"}}, "geometry": {"type": "Point", "coordinates": [18.622353371849606, -65.47485771829929]}}, {"type": "Feature", "properties": {"norad_id": 37791, "name": "RASAT", "group": "resource", "lat": -0.24372504583606494, "lon": 85.84986139772077, "alt_km": 658.3588154416075, "timestamp": "2025-12-22T16:55:17.106970+00:00", "meta": {"OBJECT_NAME": "RASAT", "OBJECT_ID": "2011-044D", "EPOCH": "2025-12-22T07:30:42.628032", "MEAN_MOTION": 14.67921786, "ECCENTRICITY": 0.00214444, "INCLINATION": 98.0651, "RA_OF_ASC_NODE": 85.4291, "ARG_OF_PERICENTER": 36.1698, "MEAN_ANOMALY": 53.2093, "EPHEMERIS_TYPE": 0, "CLASSIFICATION_TYPE": "U", "NORAD_CAT_ID": 37791, "ELEMENT_SET_NO": 999, "REV_AT_EPOCH": 76723, "BSTAR": 0.00010526838, "MEAN_MOTION_DOT": 5.55e-06, "MEAN_MOTION_DDOT": 0}, "tle": {"line1": "1 37791U 11044D   25356.31299338  .00000555  00000+0  10527-3 0  9998", "line2": "2 37791  98.0651  85.4291 0021444  36.1698  53.2093 14.67921786767233"}}, "geometry": {"type": "Point", "coordinates": [85.84986139772077, -0.24372504583606494]}}, {"type": "Feature", "properties": {"norad_id": 37841, "name": "SRMSAT", "group": "resource", "lat": 17.58857976058843, "lon": 108.42625447455312, "alt_km": 840.6735787967955, "timestamp": "2025-12-22T16:55:17.106980+00:00", "meta": {"OBJECT_NAME": "SRMSAT", "OBJECT_ID": "2011-058D", "EPOCH": "2025-12-22T04:55:04.592928", "MEAN_MOTION": 14.11514493, "ECCENTRICITY": 0.00119761, "INCLINATION": 19.9727, "RA_OF_ASC_NODE": 50.6662, "ARG_OF_PERICENTER": 57.2128, "MEAN_ANOMALY": 338.1181, "EPHEMERIS_TYPE": 0, "CLASSIFICATION_TYPE": "U", "NORAD_CAT_ID": 37841, "ELEMENT_SET_NO": 999, "REV_AT_EPOCH": 73278, "BSTAR": 8.00517e-05, "MEAN_MOTION_DOT": 4.12e-06, "MEAN_MOTION_DDOT": 0}, "tle": {"line1": "1 37841U 11058D   25356.20491427  .00000412  00000+0  80052-4 0  9993", "line2": "2 37841  19.9727  50.6662 0011976  57.2128 338.1181 14.11514493732789"}}, "geometry": {"type": "Point", "coordinates": [108.42625447455312, 17.58857976058843]}}, {"type": "Feature", "properties": {"norad_id": 38012, "name": "PLEIADES 1A", "group": "resource", "lat": -0.3890789359235604, "lon": -110.73591167926955, "alt_km": 701.0590401793688, "timestamp": "2025-12-22T16:55:17.106990+00:00", "meta": {"OBJECT_NAME": "PLEIADES 1A", "OBJECT_ID": "2011-076F", "EPOCH": "2025-12-22T06:38:02.047776", "MEAN_MOTION": 14.58569012, "ECCENTRICITY": 0.00011259, "INCLINATION": 98.1818, "RA_OF_ASC_NODE": 68.8981, "ARG_OF_PERICENTER": 75.0299, "MEAN_ANOMALY": 15.8069, "EPHEMERIS_TYPE": 0, "CLASSIFICATION_TYPE": "U", "NORAD_CAT_ID": 38012, "ELEMENT_SET_NO": 999, "REV_AT_EPOCH": 74620, "BSTAR": 5.7564221e-05, "MEAN_MOTION_DOT": 2.22e-06, "MEAN_MOTION_DDOT": 0}, "tle": {"line1": "1 38012U 11076F   25356.27641259  .00000222  00000+0  57564-4 0  9992", "line2": "2 38012  98.1818  68.8981 0001125  75.0299  15.8069 14.58569012746201"}}, "geometry": {"type": "Point", "coordinates": [-110.73591167926955, -0.3890789359235604]}}, {"type": "Feature", "properties": {"norad_id": 38038, "name": "ZIYUAN 1-02C (ZY 1-02C)", "group": "resource", "lat": 70.18551012137729, "lon": 38.22235575516114, "alt_km": 754.1259880269799, "timestamp": "2025-12-22T16:55:17.107001+00:00", "meta": {"OBJECT_NAME": "ZIYUAN 1-02C (ZY 1-02C)", "OBJECT_ID": "2011-079A", "EPOCH": "2025-12-22T06:58:00.515136", "MEAN_MOTION": 14.38021522, "ECCENTRICITY": 0.00075052, "INCLINATION": 98.4326, "RA_OF_ASC_NODE": 62.128, "ARG_OF_PERICENTER": 113.4148, "MEAN_ANOMALY": 332.6788, "EPHEMERIS_TYPE": 0, "CLASSIFICATION_TYPE": "U", "NORAD_CAT_ID": 38038, "ELEMENT_SET_NO": 999, "REV_AT_EPOCH": 73378, "BSTAR": 0.00011641649, "MEAN_MOTION_DOT": 3.09e-06, "MEAN_MOTION_DDOT": 0}, "tle": {"line1": "1 38038U 11079A   25356.29028374  .00000309  00000+0  11642-3 0  9994", "line2": "2 38038  98.4326  62.1280 0007505 113.4148 332.6788 14.38021522733787"}}, "geometry": {"type": "Point", "coordinates": [38.22235575516114, 70.18551012137729]}}, {"type": "Feature", "properties": {"norad_id": 38338, "name": "ARIRANG-3 (KOMPSAT-3)", "group": "resource", "lat": -10.72708411816637, "lon": 129.7789694771884, "alt_km": 693.2025159406812, "timestamp": "2025-12-22T16:55:17.107011+00:00", "meta": {"OBJECT_NAME": "ARIRANG-3 (KOMPSAT-3)", "OBJECT_ID": "2012-025B", "EPOCH": "2025-12-22T06:11:38.221728", "MEAN_MOTION": 14.61724597, "ECCENTRICITY": 0.00048075, "INCLINATION": 98.3336, "RA_OF_ASC_NODE": 310.9198, "ARG_OF_PERICENTER": 305.0975, "MEAN_ANOMALY": 54.9775, "EPHEMERIS_TYPE": 0, "CLASSIFICATION_TYPE": "U", "NORAD_CAT_ID": 38338, "ELEMENT_SET_NO": 999, "REV_AT_EPOCH": 72549, "BSTAR": 0.00011577227, "MEAN_MOTION_DOT": 5.28e-06, "MEAN_MOTION_DDOT": 0}, "tle": {"line1": "1 38338U 12025B   25356.25808127  .00000528  00000+0  11577-3 0  9997", "line2": "2 38338  98.3336 310.9198 0004807 305.0975  54.9775 14.61724597725498"}}, "geometry": {"type": "Point", "coordinates": [129.7789694771884, -10.72708411816637]}}, {"type": "Feature", "properties": {"norad_id": 38709, "name": "EXACTVIEW-1 (ADS-1B)", "group": "resource", "lat": -48.93594475736955, "lon": 115.74145016368266, "alt_km": 808.4901944344192, "timestamp": "2025-12-22T16:55:17.107022+00:00", "meta": {"OBJECT_NAME": "EXACTVIEW-1 (ADS-1B)", "OBJECT_ID": "2012-039C", "EPOCH": "2025-12-22T05:21:26.060256", "MEAN_MOTION": 14.24911668, "ECCENTRICITY": 0.0010213, "INCLINATION": 98.9637, "RA_OF_ASC_NODE": 104.8123, "ARG_OF_PERICENTER": 325.9795, "MEAN_ANOMALY": 34.0728, "EPHEMERIS_TYPE": 0, "CLASSIFICATION_TYPE": "U", "NORAD_CAT_ID": 38709, "ELEMENT_SET_NO": 999, "REV_AT_EPOCH": 69750, "BSTAR": 8.2268124e-05, "MEAN_MOTION_DOT": 1.46e-06, "MEAN_MOTION_DDOT": 0}, "tle": {"line1": "1 38709U 12039C   25356.22321829  .00000146  00000+0  82268-4 0  9992", "line2": "2 38709  98.9637 104.8123 0010213 325.9795  34.0728 14.24911668697500"}}, "geometry": {"type": "Point", "coordinates": [115.74145016368266, -48.93594475736955]}}, {"type": "Feature", "properties": {"norad_id": 38755, "name": "SPOT 6", "group": "resource", "lat": 73.9607335552464, "lon": -88.76807214607204, "alt_km": 689.9962350557444, "timestamp": "2025-12-22T16:55:17.107032+00:00", "meta": {"OBJECT_NAME": "SPOT 6", "OBJECT_ID": "2012-047A", "EPOCH": "2025-12-22T06:34:06.430656", "MEAN_MOTION": 14.5853921, "ECCENTRICITY": 0.0001299, "INCLINATION": 98.1565, "RA_OF_ASC_NODE": 60.8826, "ARG_OF_PERICENTER": 78.5922, "MEAN_ANOMALY": 281.5423, "EPHEMERIS_TYPE": 0, "CLASSIFICATION_TYPE": "U", "NORAD_CAT_ID": 38755, "ELEMENT_SET_NO": 999, "REV_AT_EPOCH": 70726, "BSTAR": 3.1870533e-05, "MEAN_MOTION_DOT": 1.03e-06, "MEAN_MOTION_DDOT": 0}, "tle": {"line1": "1 38755U 12047A   25356.27368554  .00000103  00000+0  31871-4 0  9990", "line2": "2 38755  98.1565  60.8826 0001299  78.5922 281.5423 14.58539210707263"}}, "geometry": {"type": "Point", "coordinates": [-88.76807214607204, 73.9607335552464]}}]}